NORAD_CAT_ID,OBJECT_NAME,OBJECT_TYPE,EPOCH,MEAN_MOTION,ECCENTRICITY,INCLINATION,RA_OF_ASC_NODE,ARG_OF_PERICENTER,MEAN_ANOMALY,BSTAR,MEAN_MOTION_DOT,MEAN_MOTION_DDOT,TLE_LINE0,TLE_LINE1,TLE_LINE2,SEMIMAJOR_AXIS,PERIOD,APOGEE,PERIGEE,DECAYED
55660.0,STARLINK-5467,PAYLOAD,2023-08-07 06:00:00,15.49662908,0.000354,70.0007,31.1837,270.8448,70.4312,-0.016787,-0.00852134,0.0,0 STARLINK-5467,1 55660U 23021AJ  23219.25001157 -.00852134  00000-0 -16787-1 0  9993,2 55660  70.0007  31.1837 0003540 270.8448  70.4312 15.49662908 27293,6795.848,92.923,420.119,415.308,0.0
55660.0,STARLINK-5467,PAYLOAD,2023-08-07 22:00:00,15.48386134,0.0003476,70.0005,29.3672,277.1693,180.6856,-0.018285,-0.00884196,0.0,0 STARLINK-5467,1 55660U 23021AJ  23219.91667824 -.00884196  00000-0 -18285-1 0  9993,2 55660  70.0005  29.3672 0003476 277.1693 180.6856 15.48386134 27398,6799.584,93.0,423.812,419.085,0.0
55660.0,STARLINK-5467,PAYLOAD,2023-08-08 14:00:01,15.47113139,0.0003311,70.001,27.5542,269.6011,301.7776,-0.02065,-0.00962039,0.0,0 STARLINK-5467,1 55660U 23021AJ  23220.58335648 -.00962039  00000-0 -20650-1 0  9996,2 55660  70.0010  27.5542 0003311 269.6011 301.7776 15.47113139 27498,6803.313,93.077,427.431,422.926,0.0
55660.0,STARLINK-5467,PAYLOAD,2023-08-09 06:00:00,15.45746653,0.0003382,70.0004,25.7445,266.9093,54.7559,-0.019006,-0.00842311,0.0,0 STARLINK-5467,1 55660U 23021AJ  23221.25001157 -.00842311  00000-0 -19006-1 0  9999,2 55660  70.0004  25.7445 0003382 266.9093  54.7559 15.45746653 27597,6807.322,93.159,431.489,426.885,0.0
55660.0,STARLINK-5467,PAYLOAD,2023-08-09 22:00:00,15.44480918,0.0003312,70.0003,23.9382,275.0838,153.7731,-0.021336,-0.00912092,0.0,0 STARLINK-5467,1 55660U 23021AJ  23221.91667824 -.00912092  00000-0 -21336-1 0  9994,2 55660  70.0003  23.9382 0003312 275.0838 153.7731 15.44480918 27700,6811.041,93.235,435.162,430.65,0.0
55660.0,STARLINK-5467,PAYLOAD,2023-08-10 22:00:01,15.42528087,0.0003157,70.0,21.2358,273.2252,310.6356,-0.023017,-0.00920215,0.0,0 STARLINK-5467,1 55660U 23021AJ  23222.91668981 -.00920215  00000-0 -23017-1 0  9994,2 55660  70.0000  21.2358 0003157 273.2252 310.6356 15.42528087 27859,6816.788,93.353,440.805,436.501,0.0
55660.0,STARLINK-5467,PAYLOAD,2023-08-11 22:00:01,15.40570715,0.0003364,69.9999,18.5415,275.428,96.3336,-0.024559,-0.00919765,0.0,0 STARLINK-5467,1 55660U 23021AJ  23223.91668981 -.00919765  00000-0 -24559-1 0  9995,2 55660  69.9999  18.5415 0003364 275.4280  96.3336 15.40570715 28019,6822.561,93.472,446.721,442.131,0.0
55660.0,STARLINK-5467,PAYLOAD,2023-08-12 22:00:00,15.38600906,0.0003329,70.0,15.855,275.6726,236.8916,-0.025582,-0.00899506,0.0,0 STARLINK-5467,1 55660U 23021AJ  23224.91667824 -.00899506  00000-0 -25582-1 0  9998,2 55660  70.0000  15.8550 0003329 275.6726 236.8916 15.38600906 28167,6828.383,93.592,452.521,447.975,0.0
55660.0,STARLINK-5467,PAYLOAD,2023-08-13 14:00:01,15.37326906,0.0003379,70.0005,14.0685,268.9237,333.6243,-0.02828,-0.0094938,0.0,0 STARLINK-5467,1 55660U 23021AJ  23225.58334491 -.00949380  00000-0 -28280-1 0  9997,2 55660  70.0005  14.0685 0003379 268.9237 333.6243 15.37326906 28263,6832.155,93.669,456.328,451.711,0.0
55660.0,STARLINK-5467,PAYLOAD,2023-08-14 14:00:01,15.35373012,0.0003464,70.0005,11.3955,271.0417,100.6313,-0.030348,-0.00955911,0.0,0 STARLINK-5467,1 55660U 23021AJ  23226.58334491 -.00955911  00000-0 -30348-1 0  9993,2 55660  70.0005  11.3955 0003464 271.0417 100.6313 15.35373012 28429,6837.95,93.788,462.183,457.446,0.0
55660.0,STARLINK-5467,PAYLOAD,2023-08-15 06:00:00,15.34001793,0.0003329,70.0005,9.6181,270.3996,183.4663,-0.027876,-0.00849008,0.0,0 STARLINK-5467,1 55660U 23021AJ  23227.25001157 -.00849008  00000-0 -27876-1 0  9999,2 55660  70.0005   9.6181 0003329 270.3996 183.4663 15.34001793 28525,6842.024,93.872,466.167,461.611,0.0
55660.0,STARLINK-5467,PAYLOAD,2023-08-15 18:00:00,15.33046118,0.0003408,70.0006,8.2872,274.7733,58.6632,-0.029997,-0.00883449,0.0,0 STARLINK-5467,1 55660U 23021AJ  23227.75001157 -.00883449  00000-0 -29997-1 0  9997,2 55660  70.0006   8.2872 0003408 274.7733  58.6632 15.33046118 28600,6844.867,93.931,469.065,464.399,0.0
55660.0,STARLINK-5467,PAYLOAD,2023-08-16 22:00:00,15.30795653,0.0003445,70.0006,5.1895,274.832,10.7574,-0.034308,-0.00936688,0.0,0 STARLINK-5467,1 55660U 23021AJ  23228.91667824 -.00936688  00000-0 -34308-1 0  9991,2 55660  70.0006   5.1895 0003445 274.8320  10.7574 15.30795653 28779,6851.574,94.069,475.8,471.079,0.0
55660.0,STARLINK-5467,PAYLOAD,2023-08-18 06:00:02,15.28135766,0.0003428,70.0012,1.6623,271.3963,153.5817,-0.033594,-0.00851757,0.0,0 STARLINK-5467,1 55660U 23021AJ  23230.25002315 -.00851757  00000-0 -33594-1 0  9998,2 55660  70.0012   1.6623 0003428 271.3963 153.5817 15.28135766 28981,6859.522,94.232,483.739,479.036,0.0
55660.0,STARLINK-5467,PAYLOAD,2023-08-18 22:00:00,15.26881175,0.0003363,70.0011,359.904,277.8795,211.9831,-0.038666,-0.00947724,0.0,0 STARLINK-5467,1 55660U 23021AJ  23230.91667824 -.00947724  00000-0 -38666-1 0  9998,2 55660  70.0011 359.9040 0003363 277.8795 211.9831 15.26881175 29081,6863.279,94.31,487.453,482.836,0.0
55660.0,STARLINK-5467,PAYLOAD,2023-08-20 06:00:02,15.24228964,0.0003292,70.0012,356.398,267.4719,343.0015,-0.038268,-0.00861143,0.0,0 STARLINK-5467,1 55660U 23021AJ  23232.25002315 -.00861143  00000-0 -38268-1 0  9993,2 55660  70.0012 356.3980 0003292 267.4719 343.0015 15.24228964 29280,6871.239,94.474,495.366,490.842,0.0
55660.0,STARLINK-5467,PAYLOAD,2023-08-20 22:00:00,15.22973948,0.0003368,70.0009,354.65,273.5615,32.4115,-0.044207,-0.00962307,0.0,0 STARLINK-5467,1 55660U 23021AJ  23232.91667824 -.00962307  00000-0 -44207-1 0  9992,2 55660  70.0009 354.6500 0003368 273.5615  32.4115 15.22973948 29391,6875.013,94.552,499.194,494.563,0.0
55660.0,STARLINK-5467,PAYLOAD,2023-08-21 14:00:01,15.2165083,0.0003431,70.0011,352.9057,272.2073,86.2184,-0.044421,-0.00932176,0.0,0 STARLINK-5467,1 55660U 23021AJ  23233.58334491 -.00932176  00000-0 -44421-1 0  9996,2 55660  70.0011 352.9057 0003431 272.2073  86.2184 15.21650830 29492,6878.998,94.634,503.223,498.503,0.0
55660.0,STARLINK-5467,PAYLOAD,2023-08-22 22:00:00,15.19059708,0.0003268,70.0005,349.4273,275.9451,177.9769,-0.049546,-0.00961412,0.0,0 STARLINK-5467,1 55660U 23021AJ  23234.91667824 -.00961412  00000-0 -49546-1 0  9991,2 55660  70.0005 349.4273 0003268 275.9451 177.9769 15.19059708 29697,6886.818,94.795,510.934,506.432,0.0
55660.0,STARLINK-5467,PAYLOAD,2023-08-23 14:00:01,15.17729715,0.0003263,70.0006,347.6934,274.4273,222.5629,-0.049147,-0.00920795,0.0,0 STARLINK-5467,1 55660U 23021AJ  23235.58334491 -.00920795  00000-0 -49147-1 0  9992,2 55660  70.0006 347.6934 0003263 274.4273 222.5629 15.17729715 29796,6890.841,94.879,514.954,510.457,0.0
55660.0,STARLINK-5467,PAYLOAD,2023-08-24 22:00:00,15.15147703,0.0003141,70.0002,344.236,273.7616,299.9477,-0.055771,-0.00966688,0.0,0 STARLINK-5467,1 55660U 23021AJ  23236.91667824 -.00966688  00000-0 -55771-1 0  9990,2 55660  70.0002 344.2360 0003141 273.7616 299.9477 15.15147703  6070,6898.667,95.04,522.699,518.365,0.0
55660.0,STARLINK-5467,PAYLOAD,2023-08-25 14:00:01,15.13809223,0.0003252,70.0004,342.5125,273.6177,333.7739,-0.054141,-0.00908056,0.0,0 STARLINK-5467,1 55660U 23021AJ  23237.58334491 -.00908056  00000-0 -54141-1 0  9990,2 55660  70.0004 342.5125 0003252 273.6177 333.7739 15.13809223 30093,6902.733,95.124,526.843,522.353,0.0
55660.0,STARLINK-5467,PAYLOAD,2023-08-26 00:00:02,15.13005417,0.0003326,70.0003,341.437,273.4051,83.5015,-0.057278,-0.00936902,0.0,0 STARLINK-5467,1 55660U 23021AJ  23238.00002315 -.00936902  00000-0 -57278-1 0  9990,2 55660  70.0003 341.4370 0003326 273.4051  83.5015 15.13005417  5961,6905.178,95.175,529.339,524.746,0.0
55660.0,STARLINK-5467,PAYLOAD,2023-08-26 14:00:01,15.11852148,0.0003308,70.0005,339.9338,274.1323,17.898,-0.057099,-0.00906628,0.0,0 STARLINK-5467,1 55660U 23021AJ  23238.58334491 -.00906628  00000-0 -57099-1 0  9999,2 55660  70.0005 339.9338 0003308 274.1323  17.8980 15.11852148 30259,6908.689,95.247,532.839,528.268,0.0
55660.0,STARLINK-5467,PAYLOAD,2023-08-27 00:00:00,15.11044496,0.0003312,70.0004,338.8616,274.3634,124.1865,-0.059985,-0.00929463,0.0,0 STARLINK-5467,1 55660U 23021AJ  23239.00001157 -.00929463  00000-0 -59985-1 0  9995,2 55660  70.0004 338.8616 0003312 274.3634 124.1865 15.11044496  6039,6911.15,95.298,535.304,530.726,0.0
55660.0,STARLINK-5467,PAYLOAD,2023-08-27 06:00:02,15.1054895,0.0003303,70.0006,338.219,269.2482,48.6839,-0.05829,-0.00893591,0.0,0 STARLINK-5467,1 55660U 23021AJ  23239.25002315 -.00893591  00000-0 -58290-1 0  9999,2 55660  70.0006 338.2190 0003303 269.2482  48.6839 15.10548950 30352,6912.662,95.33,536.81,532.243,0.0
55660.0,STARLINK-5467,PAYLOAD,2023-08-27 14:00:01,15.09896382,0.0003353,70.0007,337.3629,275.2643,54.3635,-0.060349,-0.00907535,0.0,0 STARLINK-5467,1 55660U 23021AJ  23239.58334491 -.00907535  00000-0 -60349-1 0  9990,2 55660  70.0007 337.3629 0003353 275.2643  54.3635 15.09896382  5938,6914.653,95.371,538.837,534.2,0.0
55660.0,STARLINK-5467,PAYLOAD,2023-08-27 22:00:00,15.09273197,0.0003299,70.0005,336.5076,274.5838,66.004,-0.065541,-0.00964131,0.0,0 STARLINK-5467,1 55660U 23021AJ  23239.91667824 -.00964131  00000-0 -65541-1 0  9990,2 55660  70.0005 336.5076 0003299 274.5838  66.0040 15.09273197 30458,6916.557,95.41,540.703,536.14,0.0
55660.0,STARLINK-5467,PAYLOAD,2023-08-28 14:00:01,15.07939735,0.000334,70.0008,334.7998,275.8939,84.2917,-0.06368,-0.00907512,0.0,0 STARLINK-5467,1 55660U 23021AJ  23240.58334491 -.00907512  00000-0 -63680-1 0  9998,2 55660  70.0008 334.7998 0003340 275.8939  84.2917 15.07939735 30558,6920.634,95.495,544.81,540.187,0.0
55660.0,STARLINK-5467,PAYLOAD,2023-08-28 22:00:00,15.07313887,0.0003294,70.0006,333.9471,274.6954,94.1043,-0.068903,-0.0096089,0.0,0 STARLINK-5467,1 55660U 23021AJ  23240.91667824 -.00960890  00000-0 -68903-1 0  9995,2 55660  70.0006 333.9471 0003294 274.6954  94.1043 15.07313887  6035,6922.549,95.534,546.694,542.134,0.0
